OCEANSAT-2              
1 35931U 09051A   26156.76182376  .00000184  00000+0  15173-3 0  9998
2 35931  98.2322 144.7531 0014556 271.2235  88.7264 13.99663108877730
WORLDVIEW-2 (WV-2)      
1 35946U 09055A   26156.68208653  .00000142  00000+0  61370-4 0  9991
2 35946  98.4737 230.2900 0003184 250.9074 109.1768 14.37896027873991
SMOS                    
1 36036U 09059A   26156.44474598  .00000261  00000+0  97266-4 0  9998
2 36036  98.4426 343.9518 0001345  91.6807 268.4536 14.39766110871761
YAOGAN-7                
1 36110U 09069A   26156.44443230  .00000540  00000+0  81754-4 0  9996
2 36110  98.0085  42.3833 0025995  77.8419 282.5701 14.77997470887892
TANDEM-X                
1 36605U 10030A   26152.44920715  .00000743  00000+0  38591-4 0  9995
2 36605  97.4445 160.3804 0001783  80.8335 279.3101 15.19149361884253
CARTOSAT-2B             
1 36795U 10035A   26156.70041613  .00000835  00000+0  12113-3 0  9997
2 36795  97.9953 207.3225 0010298 223.5320 136.5079 14.78646659858156
YAOGAN-10               
1 36834U 10038A   26156.76386924  .00001871  00000+0  22404-3 0  9992
2 36834  97.8977 180.2591 0001625  88.2696 331.2117 14.85312560855519
COSMO-SKYMED 4          
1 37216U 10060A   26156.76441462  .00000466  00000+0  65031-4 0  9994
2 37216  97.8885 340.5297 0001453  82.2140 277.9238 14.82160693842873
RESOURCESAT-2           
1 37387U 11015A   26156.68701718  .00000100  00000+0  65837-4 0  9997
2 37387  98.7645 224.2078 0010170 292.5522  67.4578 14.21603972784540
HAIYANG-2A              
1 37781U 11043A   26156.39148267  .00000290  00000+0  35226-3 0  9996
2 37781  99.3393 159.3266 0006340 115.0949 245.0859 13.74586977745037
RASAT                   
1 37791U 11044D   26156.73560037  .00000765  00000+0  14126-3 0  9992
2 37791  98.0572 248.3070 0019407 226.6023 236.6104 14.68156458791508
SRMSAT                  
1 37841U 11058D   26156.64627256  .00000376  00000+0  60191-4 0  9992
2 37841  19.9704 129.3229 0011943  77.5338  79.4380 14.11573181756184
PLEIADES 1A             
1 38012U 11076F   26156.67719899  .00000438  00000+0  10394-3 0  9999
2 38012  98.1975 231.9340 0001476  98.0622   5.3388 14.58564265770313
ZIYUAN 1-02C (ZY 1-02C) 
1 38038U 11079A   26156.74391150  .00000684  00000+0  23934-3 0  9991
2 38038  98.4070 224.2911 0006247 354.2025 111.2694 14.38206348757566
ARIRANG-3 (KOMPSAT-3)   
1 38338U 12025B   26156.74162279  .00000488  00000+0  10622-3 0  9996
2 38338  98.1171 114.3996 0006137 138.9868 221.1796 14.62195873749674
EXACTVIEW-1 (ADS-1B)    
1 38709U 12039C   26156.58498611  .00000140  00000+0  79637-4 0  9994
2 38709  98.9765 273.7139 0010525 199.6672 160.4101 14.24981103721059
SPOT 6                  
1 38755U 12047A   26156.67279194  .00000427  00000+0  10180-3 0  9992
2 38755  98.2119 224.1157 0001407  92.9907 267.1453 14.58556503731371
PLEIADES 1B             
1 39019U 12068A   26156.69168738  .00000410  00000+0  97948-4 0  9992
2 39019  98.1945 231.9012 0001537  95.8440 264.2935 14.58553734719175
GOKTURK 2               
1 39030U 12073A   26156.75597860  .00000230  00000+0  40636-4 0  9992
2 39030  97.6820 354.7601 0001985  62.8582 297.2831 14.75530247722820
LANDSAT 8               
1 39084U 13008A   26156.62551877  .00000364  00000+0  90979-4 0  9997
2 39084  98.2303 226.8976 0001456  97.3231 262.8132 14.57110907696215
SARAL                   
1 39086U 13009A   26156.72833102  .00000087  00000+0  48010-4 0  9996
2 39086  98.5558 343.4409 0001354 359.9905   0.1279 14.32853120693969
GAOFEN-1                
1 39150U 13018A   26156.47477830 -.00000371  00000+0 -45794-4 0  9996
2 39150  97.9095 228.7800 0016070 307.6988  52.2765 14.76521097706519
VNREDSAT 1              
1 39160U 13021B   26156.68168934  .00000644  00000+0  12907-3 0  9996
2 39160  97.9082 210.5388 0001623  90.9970 269.1419 14.64845030698605
ARIRANG-5 (KOMPSAT-5)   
1 39227U 13042A   26156.72656899  .00002370  00000+0  17342-3 0  9996
2 39227  97.6205 343.5874 0003891 152.2457 207.8977 15.04547946702133
SKYSAT-A                
1 39418U 13066C   26156.41860396  .00003542  00000+0  20376-3 0  9992
2 39418  97.3817 206.1908 0021212 359.5844   0.5366 15.12907705686708
DUBAISAT-2              
1 39419U 13066D   26156.74018736  .00002950  00000+0  18464-3 0  9999
2 39419  97.4566 147.1855 0013132  74.6035 285.6644 15.10089092684661
GPM-CORE                
1 39574U 14009C   26156.68672994  .00007952  00000+0  17022-3 0  9990
2 39574  64.9730 346.6622 0012044 269.1390  90.8370 15.45405561696036
SENTINEL-1A             
1 39634U 14016A   26156.71035932  .00000163  00000+0  44309-4 0  9990
2 39634  98.1778 164.4106 0001434  81.1135 279.0227 14.59199253648342
KAZEOSAT 1              
1 39731U 14024A   26156.64259826  .00000323  00000+0  11141-3 0  9994
2 39731  98.3205 229.3764 0001525  76.0046 284.1313 14.42075991636897
ALOS-2                  
1 39766U 14029A   26156.70920684  .00002460  00000+0  33625-3 0  9996
2 39766  97.9213 254.0376 0001679  91.0901 269.0503 14.79466371649882
KAZEOSAT 2              
1 40010U 14033A   26156.71137867  .00000842  00000+0  10338-3 0  9997
2 40010  97.5409 356.9293 0008898   7.9414 352.1941 14.85456308647259
