OBJECT_NAME,OBJECT_ID,EPOCH,MEAN_MOTION,ECCENTRICITY,INCLINATION,RA_OF_ASC_NODE,ARG_OF_PERICENTER,MEAN_ANOMALY,EPHEMERIS_TYPE,CLASSIFICATION_TYPE,NORAD_CAT_ID,ELEMENT_SET_NO,REV_AT_EPOCH,BSTAR,MEAN_MOTION_DOT,MEAN_MOTION_DDOT
OCEANSAT-2,2009-051A,2026-06-05T18:17:01.572864,13.99663108,.0014556,98.2322,144.7531,271.2235,88.7264,0,U,35931,999,87773,.15173E-3,.184E-5,0
WORLDVIEW-2 (WV-2),2009-055A,2026-06-05T16:22:12.276192,14.37896027,.0003184,98.4737,230.2900,250.9074,109.1768,0,U,35946,999,87399,.6137E-4,.142E-5,0
SMOS,2009-059A,2026-06-05T10:40:26.052672,14.39766110,.0001345,98.4426,343.9518,91.6807,268.4536,0,U,36036,999,87176,.97266E-4,.261E-5,0
YAOGAN-7,2009-069A,2026-06-05T10:39:58.950720,14.77997470,.0025995,98.0085,42.3833,77.8419,282.5701,0,U,36110,999,88789,.81754E-4,.54E-5,0
TANDEM-X,2010-030A,2026-06-01T10:46:51.497760,15.19149361,.00017833,97.4445,160.3804,80.8335,279.3101,0,U,36605,999,88425,.38591092E-4,.743E-5,0
CARTOSAT-2B,2010-035A,2026-06-05T16:48:35.953632,14.78646659,.0010298,97.9953,207.3225,223.5320,136.5079,0,U,36795,999,85815,.12113E-3,.835E-5,0
YAOGAN-10,2010-038A,2026-06-05T18:19:58.302336,14.85312560,.0001625,97.8977,180.2591,88.2696,331.2117,0,U,36834,999,85551,.22404E-3,.1871E-4,0
COSMO-SKYMED 4,2010-060A,2026-06-05T18:20:45.423168,14.82160693,.0001453,97.8885,340.5297,82.2140,277.9238,0,U,37216,999,84287,.65031E-4,.466E-5,0
RESOURCESAT-2,2011-015A,2026-06-05T16:29:18.284352,14.21603972,.001017,98.7645,224.2078,292.5522,67.4578,0,U,37387,999,78454,.65837E-4,.1E-5,0
HAIYANG-2A,2011-043A,2026-06-05T09:23:44.102688,13.74586977,.000634,99.3393,159.3266,115.0949,245.0859,0,U,37781,999,74503,.35226E-3,.29E-5,0
RASAT,2011-044D,2026-06-05T17:39:15.871968,14.68156458,.0019407,98.0572,248.3070,226.6023,236.6104,0,U,37791,999,79150,.14126E-3,.765E-5,0
SRMSAT,2011-058D,2026-06-05T15:30:37.949184,14.11573181,.0011943,19.9704,129.3229,77.5338,79.4380,0,U,37841,999,75618,.60191E-4,.376E-5,0
PLEIADES 1A,2011-076F,2026-06-05T16:15:09.992736,14.58564265,.0001476,98.1975,231.9340,98.0622,5.3388,0,U,38012,999,77031,.10394E-3,.438E-5,0
ZIYUAN 1-02C (ZY 1-02C),2011-079A,2026-06-05T17:51:13.953600,14.38206348,.0006247,98.4070,224.2911,354.2025,111.2694,0,U,38038,999,75756,.23934E-3,.684E-5,0
ARIRANG-3 (KOMPSAT-3),2012-025B,2026-06-05T17:47:56.209056,14.62195873,.0006137,98.1171,114.3996,138.9868,221.1796,0,U,38338,999,74967,.10622E-3,.488E-5,0
EXACTVIEW-1 (ADS-1B),2012-039C,2026-06-05T14:02:22.799904,14.24981103,.0010525,98.9765,273.7139,199.6672,160.4101,0,U,38709,999,72105,.79637E-4,.14E-5,0
SPOT 6,2012-047A,2026-06-05T16:08:49.223616,14.58556503,.0001407,98.2119,224.1157,92.9907,267.1453,0,U,38755,999,73137,.1018E-3,.427E-5,0
PLEIADES 1B,2012-068A,2026-06-05T16:36:01.789632,14.58553734,.0001537,98.1945,231.9012,95.8440,264.2935,0,U,39019,999,71917,.97948E-4,.41E-5,0
GOKTURK 2,2012-073A,2026-06-05T18:08:36.551040,14.75530247,.0001985,97.6820,354.7601,62.8582,297.2831,0,U,39030,999,72282,.40636E-4,.23E-5,0
LANDSAT 8,2013-008A,2026-06-05T15:00:44.821728,14.57110907,.0001456,98.2303,226.8976,97.3231,262.8132,0,U,39084,999,69621,.90979E-4,.364E-5,0
SARAL,2013-009A,2026-06-05T17:28:47.800128,14.32853120,.0001354,98.5558,343.4409,359.9905,0.1279,0,U,39086,999,69396,.4801E-4,.87E-6,0
GAOFEN-1,2013-018A,2026-06-05T11:23:40.845120,14.76521097,.001607,97.9095,228.7800,307.6988,52.2765,0,U,39150,999,70651,-.45794E-4,-.371E-5,0
VNREDSAT 1,2013-021B,2026-06-05T16:21:37.958976,14.64845030,.0001623,97.9082,210.5388,90.9970,269.1419,0,U,39160,999,69860,.12907E-3,.644E-5,0
ARIRANG-5 (KOMPSAT-5),2013-042A,2026-06-05T17:26:15.560736,15.04547946,.0003891,97.6205,343.5874,152.2457,207.8977,0,U,39227,999,70213,.17342E-3,.237E-4,0
SKYSAT-A,2013-066C,2026-06-05T10:02:47.382144,15.12907705,.0021212,97.3817,206.1908,359.5844,0.5366,0,U,39418,999,68670,.20376E-3,.3542E-4,0
DUBAISAT-2,2013-066D,2026-06-05T17:45:52.187904,15.10089092,.0013132,97.4566,147.1855,74.6035,285.6644,0,U,39419,999,68466,.18464E-3,.295E-4,0
GPM-CORE,2014-009C,2026-06-05T16:28:53.466816,15.45405561,.0012044,64.9730,346.6622,269.1390,90.8370,0,U,39574,999,69603,.17022E-3,.7952E-4,0
SENTINEL-1A,2014-016A,2026-06-05T17:02:55.045248,14.59199253,.0001434,98.1778,164.4106,81.1135,279.0227,0,U,39634,999,64834,.44309E-4,.163E-5,0
KAZEOSAT 1,2014-024A,2026-06-05T15:25:20.489664,14.42075991,.0001525,98.3205,229.3764,76.0046,284.1313,0,U,39731,999,63689,.11141E-3,.323E-5,0
ALOS-2,2014-029A,2026-06-05T17:01:15.470976,14.79466371,.0001679,97.9213,254.0376,91.0901,269.0503,0,U,39766,999,64988,.33625E-3,.246E-4,0
KAZEOSAT 2,2014-033A,2026-06-05T17:04:23.117088,14.85456308,.0008898,97.5409,356.9293,7.9414,352.1941,0,U,40010,999,64725,.10338E-3,.842E-5,0
